{
  "type": "FeatureCollection",
  "features": [
    {
      "type": "Feature",
      "properties": {
        "norad_id": 35022,
        "name": "COSMOS 2251 DEB",
        "group": "cosmos-2251-debris",
        "lat": 12.261807024073155,
        "lon": -24.283516451615128,
        "alt_km": 723.0637073067464,
        "timestamp": "2025-12-07T09:35:10.184960+00:00",
        "meta_object_name": "COSMOS 2251 DEB",
        "meta_object_id": "1993-036AGK",
        "meta_epoch": "2025-12-02T17:45:34.658208",
        "meta_mean_motion": 14.60763876,
        "meta_eccentricity": 0.00472905,
        "meta_inclination": 74.0262,
        "meta_ra_of_asc_node": 341.0512,
        "meta_arg_of_pericenter": 183.6288,
        "meta_mean_anomaly": 176.4543,
        "meta_ephemeris_type": 0,
        "meta_classification_type": "U",
        "meta_norad_cat_id": 35022,
        "meta_element_set_no": 999,
        "meta_rev_at_epoch": 58997,
        "meta_bstar": 0.00056913021,
        "meta_mean_motion_dot": 2.791e-05,
        "meta_mean_motion_ddot": 0,
        "tle_line1": "1 35022U 93036AGK 25336.73998447  .00002791  00000+0  56913-3 0  9998",
        "tle_line2": "2 35022  74.0262 341.0512 0047290 183.6288 176.4543 14.60763876589975"
      },
      "geometry": {
        "type": "Point",
        "coordinates": [
          -24.283516451615128,
          12.261807024073155
        ]
      }
    },
    {
      "type": "Feature",
      "properties": {
        "norad_id": 35023,
        "name": "COSMOS 2251 DEB",
        "group": "cosmos-2251-debris",
        "lat": -65.9060732007579,
        "lon": 83.14903817751406,
        "alt_km": 574.508634005283,
        "timestamp": "2025-12-07T09:35:10.184970+00:00",
        "meta_object_name": "COSMOS 2251 DEB",
        "meta_object_id": "1993-036AGL",
        "meta_epoch": "2025-12-06T22:53:56.213376",
        "meta_mean_motion": 14.94818826,
        "meta_eccentricity": 0.00342464,
        "meta_inclination": 74.0381,
        "meta_ra_of_asc_node": 224.2517,
        "meta_arg_of_pericenter": 303.1336,
        "meta_mean_anomaly": 73.5274,
        "meta_ephemeris_type": 0,
        "meta_classification_type": "U",
        "meta_norad_cat_id": 35023,
        "meta_element_set_no": 999,
        "meta_rev_at_epoch": 88193,
        "meta_bstar": 0.0024827367,
        "meta_mean_motion_dot": 0.00027412,
        "meta_mean_motion_ddot": 0,
        "tle_line1": "1 35023U 93036AGL 25340.95412284  .00027412  00000+0  24827-2 0  9993",
        "tle_line2": "2 35023  74.0381 224.2517 0034246 303.1336  73.5274 14.94818826881937"
      },
      "geometry": {
        "type": "Point",
        "coordinates": [
          83.14903817751406,
          -65.9060732007579
        ]
      }
    },
    {
      "type": "Feature",
      "properties": {
        "norad_id": 35025,
        "name": "COSMOS 2251 DEB",
        "group": "cosmos-2251-debris",
        "lat": 33.674978941470414,
        "lon": 84.45745484127956,
        "alt_km": 609.900736870477,
        "timestamp": "2025-12-07T09:35:10.184980+00:00",
        "meta_object_name": "COSMOS 2251 DEB",
        "meta_object_id": "1993-036AGN",
        "meta_epoch": "2025-12-05T13:24:32.861952",
        "meta_mean_motion": 14.72652613,
        "meta_eccentricity": 0.00847967,
        "meta_inclination": 73.9386,
        "meta_ra_of_asc_node": 76.9946,
        "meta_arg_of_pericenter": 351.3968,
        "meta_mean_anomaly": 8.5744,
        "meta_ephemeris_type": 0,
        "meta_classification_type": "U",
        "meta_norad_cat_id": 35025,
        "meta_element_set_no": 999,
        "meta_rev_at_epoch": 88537,
        "meta_bstar": 0.00071609127,
        "meta_mean_motion_dot": 4.797e-05,
        "meta_mean_motion_ddot": 0,
        "tle_line1": "1 35025U 93036AGN 25339.55871368  .00004797  00000+0  71609-3 0  9993",
        "tle_line2": "2 35025  73.9386  76.9946 0084796 351.3968   8.5744 14.72652613885379"
      },
      "geometry": {
        "type": "Point",
        "coordinates": [
          84.45745484127956,
          33.674978941470414
        ]
      }
    },
    {
      "type": "Feature",
      "properties": {
        "norad_id": 35026,
        "name": "COSMOS 2251 DEB",
        "group": "cosmos-2251-debris",
        "lat": -74.00862317065443,
        "lon": -117.6450903822336,
        "alt_km": 778.7103719608122,
        "timestamp": "2025-12-07T09:35:10.184990+00:00",
        "meta_object_name": "COSMOS 2251 DEB",
        "meta_object_id": "1993-036AGP",
        "meta_epoch": "2025-12-06T07:51:48.078720",
        "meta_mean_motion": 14.53617344,
        "meta_eccentricity": 0.00822532,
        "meta_inclination": 74.0464,
        "meta_ra_of_asc_node": 330.9073,
        "meta_arg_of_pericenter": 86.1829,
        "meta_mean_anomaly": 338.5159,
        "meta_ephemeris_type": 0,
        "meta_classification_type": "U",
        "meta_norad_cat_id": 35026,
        "meta_element_set_no": 999,
        "meta_rev_at_epoch": 88050,
        "meta_bstar": 0.00012460817,
        "meta_mean_motion_dot": 5.15e-06,
        "meta_mean_motion_ddot": 0,
        "tle_line1": "1 35026U 93036AGP 25340.32763980  .00000515  00000+0  12461-3 0  9996",
        "tle_line2": "2 35026  74.0464 330.9073 0082253  86.1829 338.5159 14.53617344880505"
      },
      "geometry": {
        "type": "Point",
        "coordinates": [
          -117.6450903822336,
          -74.00862317065443
        ]
      }
    },
    {
      "type": "Feature",
      "properties": {
        "norad_id": 35028,
        "name": "COSMOS 2251 DEB",
        "group": "cosmos-2251-debris",
        "lat": -32.49231065455271,
        "lon": -89.38846875562932,
        "alt_km": 709.7496267164615,
        "timestamp": "2025-12-07T09:35:10.185000+00:00",
        "meta_object_name": "COSMOS 2251 DEB",
        "meta_object_id": "1993-036AGR",
        "meta_epoch": "2025-12-06T14:45:20.784960",
        "meta_mean_motion": 14.56559763,
        "meta_eccentricity": 0.00822588,
        "meta_inclination": 74.0381,
        "meta_ra_of_asc_node": 282.6027,
        "meta_arg_of_pericenter": 57.9846,
        "meta_mean_anomaly": 116.6366,
        "meta_ephemeris_type": 0,
        "meta_classification_type": "U",
        "meta_norad_cat_id": 35028,
        "meta_element_set_no": 999,
        "meta_rev_at_epoch": 88196,
        "meta_bstar": 0.00020909724,
        "meta_mean_motion_dot": 9.44e-06,
        "meta_mean_motion_ddot": 0,
        "tle_line1": "1 35028U 93036AGR 25340.61482390  .00000944  00000+0  20910-3 0  9997",
        "tle_line2": "2 35028  74.0381 282.6027 0082258  57.9846 116.6366 14.56559763881966"
      },
      "geometry": {
        "type": "Point",
        "coordinates": [
          -89.38846875562932,
          -32.49231065455271
        ]
      }
    },
    {
      "type": "Feature",
      "properties": {
        "norad_id": 35031,
        "name": "COSMOS 2251 DEB",
        "group": "cosmos-2251-debris",
        "lat": -46.828422083840074,
        "lon": 106.86508947695386,
        "alt_km": 779.8711875260542,
        "timestamp": "2025-12-07T09:35:10.185010+00:00",
        "meta_object_name": "COSMOS 2251 DEB",
        "meta_object_id": "1993-036AGU",
        "meta_epoch": "2025-12-06T02:28:30.271296",
        "meta_mean_motion": 14.38280865,
        "meta_eccentricity": 0.00185684,
        "meta_inclination": 74.0385,
        "meta_ra_of_asc_node": 271.4894,
        "meta_arg_of_pericenter": 6.3258,
        "meta_mean_anomaly": 353.8127,
        "meta_ephemeris_type": 0,
        "meta_classification_type": "U",
        "meta_norad_cat_id": 35031,
        "meta_element_set_no": 999,
        "meta_rev_at_epoch": 65188,
        "meta_bstar": 0.00033805858,
        "meta_mean_motion_dot": 1.004e-05,
        "meta_mean_motion_ddot": 0,
        "tle_line1": "1 35031U 93036AGU 25340.10312814  .00001004  00000+0  33806-3 0  9994",
        "tle_line2": "2 35031  74.0385 271.4894 0018568   6.3258 353.8127 14.38280865651880"
      },
      "geometry": {
        "type": "Point",
        "coordinates": [
          106.86508947695386,
          -46.828422083840074
        ]
      }
    },
    {
      "type": "Feature",
      "properties": {
        "norad_id": 35032,
        "name": "COSMOS 2251 DEB",
        "group": "cosmos-2251-debris",
        "lat": 58.5090475808962,
        "lon": 45.792206158837395,
        "alt_km": 738.8989589994226,
        "timestamp": "2025-12-07T09:35:10.185020+00:00",
        "meta_object_name": "COSMOS 2251 DEB",
        "meta_object_id": "1993-036AGV",
        "meta_epoch": "2025-12-06T20:57:06.952032",
        "meta_mean_motion": 14.58651101,
        "meta_eccentricity": 0.00687525,
        "meta_inclination": 73.8514,
        "meta_ra_of_asc_node": 18.577,
        "meta_arg_of_pericenter": 230.8542,
        "meta_mean_anomaly": 308.7404,
        "meta_ephemeris_type": 0,
        "meta_classification_type": "U",
        "meta_norad_cat_id": 35032,
        "meta_element_set_no": 999,
        "meta_rev_at_epoch": 87588,
        "meta_bstar": 0.0016314058,
        "meta_mean_motion_dot": 7.832e-05,
        "meta_mean_motion_ddot": 0,
        "tle_line1": "1 35032U 93036AGV 25340.87299713  .00007832  00000+0  16314-2 0  9990",
        "tle_line2": "2 35032  73.8514  18.5770 0068752 230.8542 308.7404 14.58651101875887"
      },
      "geometry": {
        "type": "Point",
        "coordinates": [
          45.792206158837395,
          58.5090475808962
        ]
      }
    }
  ]
}